[{"OBJECT_NAME":"KUIPER-00059","OBJECT_ID":"2025-134V","EPOCH":"2026-03-09T17:04:14.081376","MEAN_MOTION":14.79930671,"ECCENTRICITY":9.053e-5,"INCLINATION":51.8998,"RA_OF_ASC_NODE":220.4892,"ARG_OF_PERICENTER":151.7188,"MEAN_ANOMALY":208.3824,"EPHEMERIS_TYPE":0,"CLASSIFICATION_TYPE":"U","NORAD_CAT_ID":64519,"ELEMENT_SET_NO":999,"REV_AT_EPOCH":4025,"BSTAR":0.00030289099,"MEAN_MOTION_DOT":2.088e-5,"MEAN_MOTION_DDOT":0},{"OBJECT_NAME":"FASTSAT-HSV01 (USA 220)","OBJECT_ID":"2010-062D","EPOCH":"2026-03-09T22:39:04.749408","MEAN_MOTION":14.82022092,"ECCENTRICITY":0.00182404,"INCLINATION":71.9738,"RA_OF_ASC_NODE":20.4219,"ARG_OF_PERICENTER":309.5001,"MEAN_ANOMALY":50.455,"EPHEMERIS_TYPE":0,"CLASSIFICATION_TYPE":"U","NORAD_CAT_ID":37225,"ELEMENT_SET_NO":999,"REV_AT_EPOCH":9942,"BSTAR":0.00013175884,"MEAN_MOTION_DOT":9.91e-6,"MEAN_MOTION_DDOT":0}]
